FLOCK 1C-8              
1 40040U 14033AG  17300.27604781  .00001420  00000-0  14888-3 0  9994
2 40040  97.9221 215.6161 0011775 202.2202 157.8514 14.91123882182318
FLOCK 1C-3              
1 40041U 14033AH  17300.58094981  .00000728  00000-0  83594-4 0  9995
2 40041  97.9209 213.1002 0012098 213.0242 147.0240 14.88864022182192
POLYITAN-1              
1 40042U 14033AJ  17300.58260827  .00000748  00000-0  87100-4 0  9999
2 40042  97.9134 211.4473 0013747 214.5438 145.4887 14.88193572181607
TIGRISAT                
1 40043U 14033AK  17300.61624468  .00000293  00000-0  51001-4 0  9995
2 40043  97.8370 180.9693 0059035 227.2363 132.3871 14.74044343180042
LEMUR-1                 
1 40044U 14033AL  17300.61318497  .00000296  00000-0  51676-4 0  9999
2 40044  97.8367 180.6719 0058166 228.4857 131.1353 14.73870147179925
AEROCUBE 6A             
1 40045U 14033AM  17300.43112178  .00000653  00000-0  10231-3 0  9996
2 40045  97.8505 182.3151 0057006 223.1522 136.5213 14.74951633179972
AEROCUBE 6B             
1 40046U 14033AN  17300.56673842  .00000584  00000-0  92399-4 0  9990
2 40046  97.8490 182.3663 0056253 221.9330 137.7565 14.74952434179995
UKUBE-1                 
1 40074U 14037F   17300.55543156  .00000553  00000-0  74139-4 0  9996
2 40074  98.3609  61.5325 0004508   1.7449 358.3780 14.83625906178808
BRITE-PL 2              
1 40119U 14049B   17300.55838410  .00000298  00000-0  42043-4 0  9994
2 40119  97.9314  25.7301 0017949  21.9018 338.2959 14.84203125172705
FIREBIRD 4              
1 40378U 15003C   17300.56239309  .00004326  00000-0  18332-3 0  9994
2 40378  99.1140 151.0177 0133351 283.6135  75.0271 15.16155378151061
GRIFEX                  
1 40379U 15003D   17300.56862258  .00003252  00000-0  14753-3 0  9990
2 40379  99.1175 148.2404 0139685 292.9280  65.7255 15.13528280150892
EXOCUBE                 
1 40380U 15003E   17300.55573588  .00002159  00000-0  10330-3 0  9998
2 40380  99.1222 146.6784 0143681 298.0265  60.6489 15.11913892150787
DEORBITSAIL             
1 40719U 15032E   17300.30468031  .00000788  00000-0  12105-3 0  9993
2 40719  97.9643 192.3033 0017863  78.1550 282.1662 14.76207769123814
TIANWANG 1C (TW-1C)     
1 40926U 15051B   17300.50180650  .00013449  00000-0  28478-3 0  9992
2 40926  97.2155 339.1206 0012643  55.7758  53.9737 15.45141441117338
TIANWANG 1B (TW-1B)     
1 40927U 15051C   17300.53742667  .00012950  00000-0  28514-3 0  9995
2 40927  97.2247 339.1116 0012736  63.9579  40.0925 15.43994241117277
TIANWANG 1A (TW-1A)     
1 40928U 15051D   17300.48426234  .00006091  00000-0  16874-3 0  9994
2 40928  97.2153 333.9111 0014300  83.0034  26.7373 15.37226520117010
LEMUR-2-JOEL            
1 40932U 15052C   17300.32181558  .00001160  00000-0  70094-4 0  9997
2 40932   6.0102   4.2879 0014557 329.7703  30.1488 14.77563511112583
LEMUR-2-CHRIS           
1 40933U 15052D   17300.24386745  .00001322  00000-0  91661-4 0  9997
2 40933   6.0051   3.5142 0014992 332.9918  26.9471 14.77709429112584
LEMUR-2-JEROEN          
1 40934U 15052E   17300.34094044  .00001109  00000-0  64573-4 0  9992
2 40934   6.0078   8.9986 0011820 321.3412  38.5584 14.77073783112500
LEMUR-2-PETER           
1 40935U 15052F   17300.24626598  .00001145  00000-0  70228-4 0  9991
2 40935   6.0099  11.4472 0011222 311.8056  48.0662 14.76830197112497
EXACTVIEW 9             
1 40936U 15052G   17299.81894722  .00000975  00000-0  47552-4 0  9992
2 40936   6.0032  17.5207 0011256 295.6927  64.2853 14.76311245112424
ATHENOXAT 1             
1 41168U 15077C   17300.49375800  .00003528  00000-0  16043-3 0  9992
2 41168  14.9862 282.5779 0012232  51.8870  52.2305 15.12095737103091
GALASSIA                
1 41170U 15077E   17300.28704792  .00003557  00000-0  15973-3 0  9991
2 41170  14.9893 279.7368 0013323  67.4956 292.6774 15.12542149103106
VELOX 2                 
1 41171U 15077F   17300.39518915  .00002756  00000-0  12437-3 0  9996
2 41171  14.9918 294.3276 0009032  19.9081 340.1591 15.10211496102986
AGGIESAT 4              
1 41313U 98067HP  17300.52857922  .00063087  00000-0  27718-3 0  9995
2 41313  51.6380  39.4091 0004486 319.5543  40.5126 15.83957945 99827
HORYU-IV                
1 41340U 16012D   17300.48590431  .00001117  00000-0  79164-4 0  9998
2 41340  31.0065 347.4665 0014200 306.0026  53.9293 15.00769541 92907
OUFTI-1                 
1 41458U 16025C   17300.42335137  .00002878  00000-0  15559-3 0  9998
2 41458  98.1664 345.5310 0172060 207.2184 151.9988 15.03789498 82442
E-ST@R-II               
1 41459U 16025D   17300.39327775  .00003187  00000-0  17215-3 0  9999
2 41459  98.1723 345.4226 0172951 207.5362 151.6649 15.03607810 82431
AAUSAT 4                
1 41460U 16025E   17300.43756344  .00003353  00000-0  18054-3 0  9991
2 41460  98.1633 345.6666 0164568 204.9354 154.3880 15.04705115 82479
DIWATA-1                
1 41463U 98067HT  17300.59487906  .00017724  00000-0  18097-3 0  9996
2 41463  51.6415  75.9711 0000643 270.2605 176.6868 15.65146390 85518
FLOCK 2E'-1             
1 41479U 98067HZ  17300.55191195  .00050827  00000-0  30381-3 0  9992
2 41479  51.6353  58.3705 0001916 320.0793  40.0067 15.77340939 82688
FLOCK 2E'-3             
1 41480U 98067JA  17300.54227160  .00043040  00000-0  26860-3 0  9991
2 41480  51.6286  58.3184 0001807 312.1840  47.9006 15.76436977 82675
FLOCK 2E'-2             
1 41481U 98067JB  17300.54287223  .00190357  00000-0  80460-3 0  9998
2 41481  51.6283  55.2296 0006435 339.5385  20.5360 15.84288192 82709
FLOCK 2E'-4             
1 41482U 98067JC  17300.58759279  .00430694  86173-4  10296-2 0  9997
2 41482  51.6209  50.1797 0009730 338.8079  21.2525 15.95926897 82772
FLOCK 2E-1              
1 41483U 98067JD  17300.56000997  .00037371  00000-0  25977-3 0  9991
2 41483  51.6337  60.7742 0001628 260.5626  99.5189 15.74020795 82503
FLOCK 2E-2              
1 41484U 98067JE  17300.56797583  .00039399  00000-0  23982-3 0  9992
2 41484  51.6316  57.0787 0002757 277.9426  82.1261 15.77042989 82559
FLOCK 2E-3              
1 41486U 98067JG  17300.53660249  .00044487  00000-0  29012-3 0  9993
2 41486  51.6331  62.0933 0002684 285.6890  74.3813 15.75413981 82500
FLOCK 2E-4              
1 41487U 98067JH  17300.54500642  .00043531  00000-0  29926-3 0  9998
2 41487  51.6347  60.6353 0002485 274.4170  85.6545 15.74205309 82525
FLOCK 2E-6              
1 41563U 98067JM  17300.54614010  .00072084  00000-0  49331-3 0  9995
2 41563  51.6327  64.3963 0002893 332.9621  27.1227 15.74098358 80542
FLOCK 2E-5              
1 41564U 98067JN  17300.58104822  .00030196  00000-0  23311-3 0  9993
2 41564  51.6337  64.6443 0001689 330.7260  29.3643 15.71659635 80530
FLOCK 2E-7              
1 41565U 98067JP  17300.56151049  .00045653  00000-0  27251-3 0  9996
2 41565  51.6289  56.9177 0004649 291.0399  69.0104 15.77408119 80534
FLOCK 2E'-5             
1 41567U 98067JR  17300.59096680  .00028077  00000-0  22764-3 0  9995
2 41567  51.6350  66.9972 0004251 282.7804  77.2718 15.70519219 80377
FLOCK 2E'-6             
1 41568U 98067JS  17300.57378909  .00036872  00000-0  26168-3 0  9995
2 41568  51.6331  62.3009 0004264 287.5965  72.4568 15.73534443 80462
FLOCK 2E'-8             
1 41569U 98067JT  17300.56482478  .00049308  00000-0  28565-3 0  9993
2 41569  51.6330  56.1962 0002604 285.7597  74.3116 15.78055677 80426
FLOCK 2E-9              
1 41571U 98067JV  17300.54175293  .00051969  00000-0  28056-3 0  9999
2 41571  51.6342  54.5546 0003163 287.4348  72.6307 15.79599855 80421
FLOCK 2E-10             
1 41572U 98067JW  17300.56277153  .00045402  00000-0  28200-3 0  9996
2 41572  51.6353  58.4778 0004378 287.0929  72.9591 15.76512198 80378
FLOCK 2E-12             
1 41573U 98067JX  17300.53047040  .00047782  00000-0  27389-3 0  9994
2 41573  51.6329  56.7247 0004735 295.2982  64.7528 15.78297342 80395
FLOCK 2E-11             
1 41574U 98067JY  17300.58220571  .00049039  00000-0  28255-3 0  9992
2 41574  51.6276  55.4914 0005556 305.5303  54.5179 15.78164961 80410
FLOCK 2E'-9             
1 41575U 98067JZ  17300.51947145  .00066922  00000-0  34369-3 0  9992
2 41575  51.6307  53.5395 0005919 308.0383  52.0084 15.80575842 80423
FLOCK 2E'-10            
1 41576U 98067KA  17300.55613156  .00056879  00000-0  31154-3 0  9998
2 41576  51.6331  56.1793 0005550 307.1870  52.8624 15.79229175 80290
FLOCK 2E'-11            
1 41577U 98067KB  17300.54998182  .00048067  00000-0  29065-3 0  9991
2 41577  51.6361  57.6662 0004615 285.4282  74.6208 15.77094306 80093
FLOCK 2E'-12            
1 41578U 98067KC  17300.56927616  .00067061  00000-0  34094-3 0  9991
2 41578  51.6286  54.6479 0006005 293.7691  66.2681 15.80794511 80130
FLOCK 2P-6              
1 41606U 16040H   17300.14384404  .00008750  00000-0  37303-3 0  9996
2 41606  97.4432   1.7739 0009898 340.1248  76.9462 15.23135638 74788
FLOCK 2P-11             
1 41608U 16040K   17300.40001348  .00005786  00000-0  24781-3 0  9992
2 41608  97.4445   1.9941 0009772 339.3844  20.6997 15.23134155 74764
FLOCK 2P-2              
1 41609U 16040L   17300.48368994  .00007717  00000-0  32918-3 0  9991
2 41609  97.4449   2.0677 0009710 339.3929  20.6915 15.23159052 74755
FLOCK 2P-9              
1 41610U 16040M   17300.16646861  .00009925  00000-0  42262-3 0  9996
2 41610  97.4446   1.7090 0010053 340.5165  19.5686 15.23138273 74582
FLOCK 2P-4              
1 41611U 16040N   17300.45652940  .00008262  00000-0  35240-3 0  9995
2 41611  97.4473   2.2443 0010352 349.1580  10.9432 15.23134312 74796
FLOCK 2P-10             
1 41612U 16040P   17300.17178277  .00009872  00000-0  42039-3 0  9993
2 41612  97.4480   2.0430 0010199 350.0134  10.0898 15.23136097 74759
FLOCK 2P-8              
1 41613U 16040Q   17300.12256286  .00010359  00000-0  44098-3 0  9995
2 41613  97.4473   1.9313 0010319 349.2909  10.8106 15.23130853 74747
